[
  {
    "OBJECT_NAME": "STARLINK-3322",
    "OBJECT_ID": "22001AM",
    "EPOCH": "2025-11-11T08:00:03.000384",
    "MEAN_MOTION": 15.92311345,
    "ECCENTRICITY": 0.0003177,
    "INCLINATION": 53.178,
    "RA_OF_ASC_NODE": 242.4064,
    "ARG_OF_PERICENTER": 128.158,
    "MEAN_ANOMALY": 325.7348,
    "EPHEMERIS_TYPE": 0,
    "CLASSIFICATION_TYPE": "U",
    "NORAD_CAT_ID": 50838,
    "ELEMENT_SET_NO": 999,
    "REV_AT_EPOCH": 596,
    "BSTAR": 0.0036864000000000003,
    "MEAN_MOTION_DOT": 0.01258414,
    "MEAN_MOTION_DDOT": 0.00074195,
    "TLE_LINE1": "1 50838U 22001AM  25315.33336806  .01258414  74195-3  36864-2 0  9990",
    "TLE_LINE2": "2 50838  53.1780 242.4064 0003177 128.1580 325.7348 15.92311345  5961",
    "COMMENT": "Grouped by shell and plane from TLE"
  },
  {
    "OBJECT_NAME": "STARLINK-3722",
    "OBJECT_ID": "22029B",
    "EPOCH": "2025-11-11T06:16:59.569248",
    "MEAN_MOTION": 15.67118687,
    "ECCENTRICITY": 0.0003486,
    "INCLINATION": 53.2166,
    "RA_OF_ASC_NODE": 243.8562,
    "ARG_OF_PERICENTER": 125.7144,
    "MEAN_ANOMALY": 234.4198,
    "EPHEMERIS_TYPE": 0,
    "CLASSIFICATION_TYPE": "U",
    "NORAD_CAT_ID": 52089,
    "ELEMENT_SET_NO": 999,
    "REV_AT_EPOCH": 20301,
    "BSTAR": 0.00088902,
    "MEAN_MOTION_DOT": 0.00097441,
    "MEAN_MOTION_DDOT": 0.0,
    "TLE_LINE1": "1 52089U 22029B   25315.26180057  .00097441  00000+0  88902-3 0  9998",
    "TLE_LINE2": "2 52089  53.2166 243.8562 0003486 125.7144 234.4198 15.67118687203011",
    "COMMENT": "Grouped by shell and plane from TLE"
  },
  {
    "OBJECT_NAME": "STARLINK-31618",
    "OBJECT_ID": "24073T",
    "EPOCH": "2025-11-11T08:00:03.000384",
    "MEAN_MOTION": 15.84339204,
    "ECCENTRICITY": 0.0024983,
    "INCLINATION": 42.9832,
    "RA_OF_ASC_NODE": 246.6829,
    "ARG_OF_PERICENTER": 185.7737,
    "MEAN_ANOMALY": 55.1354,
    "EPHEMERIS_TYPE": 0,
    "CLASSIFICATION_TYPE": "U",
    "NORAD_CAT_ID": 59528,
    "ELEMENT_SET_NO": 999,
    "REV_AT_EPOCH": 600,
    "BSTAR": 0.001706,
    "MEAN_MOTION_DOT": 0.00429756,
    "MEAN_MOTION_DDOT": 0.0,
    "TLE_LINE1": "1 59528U 24073T   25315.33336806  .00429756  00000+0  17060-2 0  9991",
    "TLE_LINE2": "2 59528  42.9832 246.6829 0024983 185.7737  55.1354 15.84339204  6008",
    "COMMENT": "Grouped by shell and plane from TLE"
  },
  {
    "OBJECT_NAME": "STARLINK-11341 [DTC]",
    "OBJECT_ID": "24195K",
    "EPOCH": "2025-11-11T06:01:41.953728",
    "MEAN_MOTION": 15.69697181,
    "ECCENTRICITY": 0.0001308,
    "INCLINATION": 53.1594,
    "RA_OF_ASC_NODE": 249.961,
    "ARG_OF_PERICENTER": 87.2876,
    "MEAN_ANOMALY": 272.8292,
    "EPHEMERIS_TYPE": 0,
    "CLASSIFICATION_TYPE": "U",
    "NORAD_CAT_ID": 61696,
    "ELEMENT_SET_NO": 999,
    "REV_AT_EPOCH": 6043,
    "BSTAR": 2.269e-05,
    "MEAN_MOTION_DOT": 2.159e-05,
    "MEAN_MOTION_DDOT": 0.0,
    "TLE_LINE1": "1 61696U 24195K   25315.25118002  .00002159  00000+0  22690-4 0  9993",
    "TLE_LINE2": "2 61696  53.1594 249.9610 0001308  87.2876 272.8292 15.69697181 60436",
    "COMMENT": "Grouped by shell and plane from TLE"
  },
  {
    "OBJECT_NAME": "STARLINK-11346 [DTC]",
    "OBJECT_ID": "24195L",
    "EPOCH": "2025-11-11T05:54:37.105056",
    "MEAN_MOTION": 15.69712218,
    "ECCENTRICITY": 0.0001214,
    "INCLINATION": 53.1593,
    "RA_OF_ASC_NODE": 249.9287,
    "ARG_OF_PERICENTER": 101.964,
    "MEAN_ANOMALY": 258.1514,
    "EPHEMERIS_TYPE": 0,
    "CLASSIFICATION_TYPE": "U",
    "NORAD_CAT_ID": 61697,
    "ELEMENT_SET_NO": 999,
    "REV_AT_EPOCH": 6043,
    "BSTAR": 5.5379000000000006e-05,
    "MEAN_MOTION_DOT": 6.126e-05,
    "MEAN_MOTION_DDOT": 0.0,
    "TLE_LINE1": "1 61697U 24195L   25315.24626279  .00006126  00000+0  55379-4 0  9991",
    "TLE_LINE2": "2 61697  53.1593 249.9287 0001214 101.9640 258.1514 15.69712218 60438",
    "COMMENT": "Grouped by shell and plane from TLE"
  },
  {
    "OBJECT_NAME": "STARLINK-11336 [DTC]",
    "OBJECT_ID": "24195M",
    "EPOCH": "2025-11-11T08:00:03.000384",
    "MEAN_MOTION": 15.8202705,
    "ECCENTRICITY": 0.0007207,
    "INCLINATION": 53.1482,
    "RA_OF_ASC_NODE": 242.2018,
    "ARG_OF_PERICENTER": 178.4488,
    "MEAN_ANOMALY": 300.8636,
    "EPHEMERIS_TYPE": 0,
    "CLASSIFICATION_TYPE": "U",
    "NORAD_CAT_ID": 61698,
    "ELEMENT_SET_NO": 999,
    "REV_AT_EPOCH": 599,
    "BSTAR": 0.0015192,
    "MEAN_MOTION_DOT": 0.00328251,
    "MEAN_MOTION_DDOT": 0.0,
    "TLE_LINE1": "1 61698U 24195M   25315.33336806  .00328251  00000+0  15192-2 0  9999",
    "TLE_LINE2": "2 61698  53.1482 242.2018 0007207 178.4488 300.8636 15.82027050  5999",
    "COMMENT": "Grouped by shell and plane from TLE"
  },
  {
    "OBJECT_NAME": "STARLINK-11296 [DTC]",
    "OBJECT_ID": "24195N",
    "EPOCH": "2025-11-11T05:40:29.488224",
    "MEAN_MOTION": 15.69717149,
    "ECCENTRICITY": 0.0001036,
    "INCLINATION": 53.1595,
    "RA_OF_ASC_NODE": 249.8638,
    "ARG_OF_PERICENTER": 79.8833,
    "MEAN_ANOMALY": 280.2302,
    "EPHEMERIS_TYPE": 0,
    "CLASSIFICATION_TYPE": "U",
    "NORAD_CAT_ID": 61699,
    "ELEMENT_SET_NO": 999,
    "REV_AT_EPOCH": 6043,
    "BSTAR": 4.219e-05,
    "MEAN_MOTION_DOT": 4.527e-05,
    "MEAN_MOTION_DDOT": 0.0,
    "TLE_LINE1": "1 61699U 24195N   25315.23645241  .00004527  00000+0  42190-4 0  9992",
    "TLE_LINE2": "2 61699  53.1595 249.8638 0001036  79.8833 280.2302 15.69717149 60439",
    "COMMENT": "Grouped by shell and plane from TLE"
  },
  {
    "OBJECT_NAME": "STARLINK-11609 [DTC]",
    "OBJECT_ID": "25043A",
    "EPOCH": "2025-11-11T04:30:46.906560",
    "MEAN_MOTION": 15.70930303,
    "ECCENTRICITY": 0.0001702,
    "INCLINATION": 42.9994,
    "RA_OF_ASC_NODE": 245.1193,
    "ARG_OF_PERICENTER": 268.4975,
    "MEAN_ANOMALY": 91.5698,
    "EPHEMERIS_TYPE": 0,
    "CLASSIFICATION_TYPE": "U",
    "NORAD_CAT_ID": 63132,
    "ELEMENT_SET_NO": 999,
    "REV_AT_EPOCH": 4082,
    "BSTAR": 0.0024129,
    "MEAN_MOTION_DOT": 0.00322708,
    "MEAN_MOTION_DDOT": 0.0,
    "TLE_LINE1": "1 63132U 25043A   25315.18804290  .00322708  00000+0  24129-2 0  9998",
    "TLE_LINE2": "2 63132  42.9994 245.1193 0001702 268.4975  91.5698 15.70930303 40823",
    "COMMENT": "Grouped by shell and plane from TLE"
  },
  {
    "OBJECT_NAME": "STARLINK-11604 [DTC]",
    "OBJECT_ID": "25043B",
    "EPOCH": "2025-11-11T06:32:55.379616",
    "MEAN_MOTION": 15.70871727,
    "ECCENTRICITY": 0.0001151,
    "INCLINATION": 42.9993,
    "RA_OF_ASC_NODE": 244.9084,
    "ARG_OF_PERICENTER": 283.023,
    "MEAN_ANOMALY": 77.0509,
    "EPHEMERIS_TYPE": 0,
    "CLASSIFICATION_TYPE": "U",
    "NORAD_CAT_ID": 63133,
    "ELEMENT_SET_NO": 999,
    "REV_AT_EPOCH": 4072,
    "BSTAR": 0.0021281,
    "MEAN_MOTION_DOT": 0.00282484,
    "MEAN_MOTION_DDOT": 0.0,
    "TLE_LINE1": "1 63133U 25043B   25315.27286319  .00282484  00000+0  21281-2 0  9997",
    "TLE_LINE2": "2 63133  42.9993 244.9084 0001151 283.0230  77.0509 15.70871727 40727",
    "COMMENT": "Grouped by shell and plane from TLE"
  },
  {
    "OBJECT_NAME": "STARLINK-11605 [DTC]",
    "OBJECT_ID": "25043C",
    "EPOCH": "2025-11-11T08:00:03.000384",
    "MEAN_MOTION": 15.70892802,
    "ECCENTRICITY": 0.0001495,
    "INCLINATION": 42.9997,
    "RA_OF_ASC_NODE": 244.3188,
    "ARG_OF_PERICENTER": 269.5543,
    "MEAN_ANOMALY": 163.284,
    "EPHEMERIS_TYPE": 0,
    "CLASSIFICATION_TYPE": "U",
    "NORAD_CAT_ID": 63134,
    "ELEMENT_SET_NO": 999,
    "REV_AT_EPOCH": 600,
    "BSTAR": 0.0,
    "MEAN_MOTION_DOT": -0.00124413,
    "MEAN_MOTION_DDOT": 0.0,
    "TLE_LINE1": "1 63134U 25043C   25315.33336806 -.00124413  00000+0 -97845-3 0  9991",
    "TLE_LINE2": "2 63134  42.9997 244.3188 0001495 269.5543 163.2840 15.70892802  6004",
    "COMMENT": "Grouped by shell and plane from TLE"
  },
  {
    "OBJECT_NAME": "STARLINK-11610 [DTC]",
    "OBJECT_ID": "25043D",
    "EPOCH": "2025-11-11T04:46:04.505664",
    "MEAN_MOTION": 15.71109932,
    "ECCENTRICITY": 0.0002283,
    "INCLINATION": 42.9984,
    "RA_OF_ASC_NODE": 245.2044,
    "ARG_OF_PERICENTER": 294.7622,
    "MEAN_ANOMALY": 65.3008,
    "EPHEMERIS_TYPE": 0,
    "CLASSIFICATION_TYPE": "U",
    "NORAD_CAT_ID": 63135,
    "ELEMENT_SET_NO": 999,
    "REV_AT_EPOCH": 4071,
    "BSTAR": 0.0024575,
    "MEAN_MOTION_DOT": 0.00331522,
    "MEAN_MOTION_DDOT": 0.0,
    "TLE_LINE1": "1 63135U 25043D   25315.19866326  .00331522  00000+0  24575-2 0  9999",
    "TLE_LINE2": "2 63135  42.9984 245.2044 0002283 294.7622  65.3008 15.71109932 40716",
    "COMMENT": "Grouped by shell and plane from TLE"
  },
  {
    "OBJECT_NAME": "STARLINK-11613 [DTC]",
    "OBJECT_ID": "25043E",
    "EPOCH": "2025-11-11T04:53:43.475424",
    "MEAN_MOTION": 15.71146082,
    "ECCENTRICITY": 0.0001558,
    "INCLINATION": 42.9983,
    "RA_OF_ASC_NODE": 245.246,
    "ARG_OF_PERICENTER": 304.9598,
    "MEAN_ANOMALY": 55.1123,
    "EPHEMERIS_TYPE": 0,
    "CLASSIFICATION_TYPE": "U",
    "NORAD_CAT_ID": 63136,
    "ELEMENT_SET_NO": 999,
    "REV_AT_EPOCH": 4083,
    "BSTAR": 0.0025217,
    "MEAN_MOTION_DOT": 0.0034112,
    "MEAN_MOTION_DDOT": 0.0,
    "TLE_LINE1": "1 63136U 25043E   25315.20397541  .00341120  00000+0  25217-2 0  9999",
    "TLE_LINE2": "2 63136  42.9983 245.2460 0001558 304.9598  55.1123 15.71146082 40833",
    "COMMENT": "Grouped by shell and plane from TLE"
  },
  {
    "OBJECT_NAME": "STARLINK-11616 [DTC]",
    "OBJECT_ID": "25043F",
    "EPOCH": "2025-11-11T03:46:12.922464",
    "MEAN_MOTION": 15.70866336,
    "ECCENTRICITY": 0.0001165,
    "INCLINATION": 42.9981,
    "RA_OF_ASC_NODE": 244.8677,
    "ARG_OF_PERICENTER": 255.7741,
    "MEAN_ANOMALY": 104.2997,
    "EPHEMERIS_TYPE": 0,
    "CLASSIFICATION_TYPE": "U",
    "NORAD_CAT_ID": 63137,
    "ELEMENT_SET_NO": 999,
    "REV_AT_EPOCH": 4083,
    "BSTAR": 0.00054709,
    "MEAN_MOTION_DOT": 0.00070425,
    "MEAN_MOTION_DDOT": 0.0,
    "TLE_LINE1": "1 63137U 25043F   25315.15709401  .00070425  00000+0  54709-3 0  9992",
    "TLE_LINE2": "2 63137  42.9981 244.8677 0001165 255.7741 104.2997 15.70866336 40839",
    "COMMENT": "Grouped by shell and plane from TLE"
  }
]